[Satellite]
VERSION=1.1
NAME=ORBCOMM FM35 [+]
NICKNAME=ORBCOMM FM35 [+]
TLE1=1 25985U 99065F   17186.21738276  .00000012  00000-0  55894-4 0  9995
TLE2=2 25985  45.0416  77.3670 0004260 352.2001   7.8779 14.32508211918087
